NORAD_CAT_ID,OBJECT_NAME,OBJECT_TYPE,EPOCH,MEAN_MOTION,ECCENTRICITY,INCLINATION,RA_OF_ASC_NODE,ARG_OF_PERICENTER,MEAN_ANOMALY,BSTAR,MEAN_MOTION_DOT,MEAN_MOTION_DDOT,TLE_LINE0,TLE_LINE1,TLE_LINE2,SEMIMAJOR_AXIS,PERIOD,APOGEE,PERIGEE,DECAYED
53410.0,STARLINK-4492,PAYLOAD,2024-03-27 08:44:01,15.0886944,0.0001431,53.2162,71.8722,89.9608,270.1548,0.0016156,0.00025539,0.0,0 STARLINK-4492,1 53410U 22097Y   24087.36390801  .00025539  00000-0  16156-2 0  9999,2 53410  53.2162  71.8722 0001431  89.9608 270.1548 15.08869440 91114,6917.79,95.436,540.645,538.665,0.0
53410.0,STARLINK-4492,PAYLOAD,2024-03-28 05:24:01,15.08864544,5.04e-05,53.218,68.0054,75.7141,284.3907,0.0011761,0.00018492,0.0,0 STARLINK-4492,1 53410U 22097Y   24088.22501827  .00018492  00000-0  11761-2 0  9994,2 53410  53.2180  68.0054 0000504  75.7141 284.3907 15.08864544 90750,6917.805,95.436,540.019,539.322,0.0
53410.0,STARLINK-4492,PAYLOAD,2024-03-28 08:34:47,15.0889677,0.0001153,53.218,67.4084,96.9534,263.1589,0.0012775,0.00020133,0.0,0 STARLINK-4492,1 53410U 22097Y   24088.35749670  .00020133  00000-0  12775-2 0  9999,2 53410  53.2180  67.4084 0001153  96.9534 263.1589 15.08896770 90777,6917.707,95.434,540.369,538.774,0.0
53410.0,STARLINK-4492,PAYLOAD,2024-03-28 22:53:15,15.08867853,0.0001163,53.2181,64.7357,102.2498,257.8625,0.00091553,0.00014324,0.0,0 STARLINK-4492,1 53410U 22097Y   24088.95364804  .00014324  00000-0  91553-3 0  9994,2 53410  53.2181  64.7357 0001163 102.2498 257.8625 15.08867853 91358,6917.795,95.436,540.465,538.856,0.0
53410.0,STARLINK-4492,PAYLOAD,2024-03-29 03:39:24,15.08835073,0.0001301,53.2179,63.8421,99.4923,260.6216,-0.00050846,-8.37e-05,0.0,0 STARLINK-4492,1 53410U 22097Y   24089.15237036 -.00008370  00000-0 -50846-3 0  9999,2 53410  53.2179  63.8421 0001301  99.4923 260.6216 15.08835073 90896,6917.895,95.438,540.66,538.86,0.0
53410.0,STARLINK-4492,PAYLOAD,2024-03-29 08:25:34,15.08827596,0.0001411,53.2181,62.949,102.562,257.553,-0.00060623,-9.92e-05,0.0,0 STARLINK-4492,1 53410U 22097Y   24089.35109277 -.00009920  00000-0 -60623-3 0  9992,2 53410  53.2181  62.9490 0001411 102.5620 257.5530 15.08827596 91411,6917.918,95.438,540.759,538.807,0.0
53410.0,STARLINK-4492,PAYLOAD,2024-03-29 21:08:39,15.08832363,0.0001473,53.2203,60.5747,100.5645,259.5513,-8.204e-05,-1.593e-05,0.0,0 STARLINK-4492,1 53410U 22097Y   24089.88101719 -.00001593  00000-0 -82040-4 0  9999,2 53410  53.2203  60.5747 0001473 100.5645 259.5513 15.08832363 91497,6917.904,95.438,540.788,538.75,0.0
53410.0,STARLINK-4492,PAYLOAD,2024-03-30 05:05:36,15.08828811,0.0001408,53.219,59.0887,99.0292,261.086,0.00019213,2.77e-05,0.0,0 STARLINK-4492,1 53410U 22097Y   24090.21222247  .00002770  00000-0  19213-3 0  9995,2 53410  53.2190  59.0887 0001408  99.0292 261.0860 15.08828811 91056,6917.915,95.438,540.754,538.806,0.0
53410.0,STARLINK-4492,PAYLOAD,2024-03-30 14:37:54,15.08844876,0.0001388,53.2193,57.3047,101.8189,258.2959,0.00047116,7.219e-05,0.0,0 STARLINK-4492,1 53410U 22097Y   24090.60966082  .00007219  00000-0  47116-3 0  9996,2 53410  53.2193  57.3047 0001388 101.8189 258.2959 15.08844876 91609,6917.865,95.437,540.691,538.77,0.0
53410.0,STARLINK-4492,PAYLOAD,2024-03-31 04:56:23,15.08837207,0.0001471,53.218,54.6286,98.7332,261.3826,0.00033057,4.977e-05,0.0,0 STARLINK-4492,1 53410U 22097Y   24091.20582772  .00004977  00000-0  33057-3 0  9990,2 53410  53.2180  54.6286 0001471  98.7332 261.3826 15.08837207 91201,6917.889,95.438,540.772,538.736,0.0
53410.0,STARLINK-4492,PAYLOAD,2024-03-31 14:28:42,15.08850668,0.0001448,53.2173,52.8431,82.5237,277.592,0.00054536,8.405e-05,0.0,0 STARLINK-4492,1 53410U 22097Y   24091.60326392  .00008405  00000-0  54536-3 0  9993,2 53410  53.2173  52.8431 0001448  82.5237 277.5920 15.08850668 91754,6917.848,95.437,540.714,538.711,0.0
53410.0,STARLINK-4492,PAYLOAD,2024-04-01 03:11:47,15.08836101,0.0001399,53.2167,50.4626,84.1219,275.9933,0.00040899,6.226e-05,0.0,0 STARLINK-4492,1 53410U 22097Y   24092.13318912  .00006226  00000-0  40899-3 0  9997,2 53410  53.2167  50.4626 0001399  84.1219 275.9933 15.08836101 91347,6917.892,95.438,540.725,538.789,0.0
53410.0,STARLINK-4492,PAYLOAD,2024-04-01 14:19:29,15.08856003,0.0001405,53.2163,48.3806,82.8395,277.2757,0.0010762,0.00016889,0.0,0 STARLINK-4492,1 53410U 22097Y   24092.59686658  .00016889  00000-0  10762-2 0  9993,2 53410  53.2163  48.3806 0001405  82.8395 277.2757 15.08856003 91901,6917.831,95.437,540.668,538.725,0.0
53410.0,STARLINK-4492,PAYLOAD,2024-04-02 06:13:20,15.08853764,0.0001411,53.2165,45.4084,88.3113,271.8041,0.0010161,0.00015926,0.0,0 STARLINK-4492,1 53410U 22097Y   24093.25926596  .00015926  00000-0  10161-2 0  9999,2 53410  53.2165  45.4084 0001411  88.3113 271.8041 15.08853764 91519,6917.838,95.437,540.679,538.727,0.0
53410.0,STARLINK-4492,PAYLOAD,2024-04-02 20:31:48,15.08860021,0.0002708,53.2173,42.7297,89.8783,270.252,0.0008767,0.000137,0.0,0 STARLINK-4492,1 53410U 22097Y   24093.85542626  .00013700  00000-0  87670-3 0  9991,2 53410  53.2173  42.7297 0002708  89.8783 270.2520 15.08860021 91602,6917.819,95.436,541.558,537.811,0.0
53410.0,STARLINK-4492,PAYLOAD,2024-04-03 02:53:21,15.08846214,0.0001426,53.2175,41.5427,88.7207,271.3948,0.00043402,6.627e-05,0.0,0 STARLINK-4492,1 53410U 22097Y   24094.12038552  .00006627  00000-0  43402-3 0  9995,2 53410  53.2175  41.5427 0001426  88.7207 271.3948 15.08846214 91649,6917.861,95.437,540.713,538.74,0.0
53410.0,STARLINK-4492,PAYLOAD,2024-04-03 14:01:03,15.08847175,0.0001372,53.2173,39.4606,90.4541,269.6608,0.00095075,0.00014879,0.0,0 STARLINK-4492,1 53410U 22097Y   24094.58406605  .00014879  00000-0  95075-3 0  9994,2 53410  53.2173  39.4606 0001372  90.4541 269.6608 15.08847175 92206,6917.858,95.437,540.673,538.774,0.0
53410.0,STARLINK-4492,PAYLOAD,2024-04-03 20:22:36,15.0884305,0.0001784,53.2195,38.2717,90.0329,270.0867,0.00045463,6.955e-05,0.0,0 STARLINK-4492,1 53410U 22097Y   24094.84902799  .00006955  00000-0  45463-3 0  9990,2 53410  53.2195  38.2717 0001784  90.0329 270.0867 15.08843050 91757,6917.871,95.437,540.97,538.502,0.0
53410.0,STARLINK-4492,PAYLOAD,2024-04-04 05:54:54,15.08842147,0.0001645,53.2189,36.4875,90.0825,270.0356,0.00022289,3.261e-05,0.0,0 STARLINK-4492,1 53410U 22097Y   24095.24646782  .00003261  00000-0  22289-3 0  9990,2 53410  53.2189  36.4875 0001645  90.0825 270.0356 15.08842147 92303,6917.874,95.437,540.877,538.601,0.0
53410.0,STARLINK-4492,PAYLOAD,2024-04-05 12:07:13,15.0885498,0.0001446,53.2195,30.8369,91.1817,268.9341,0.00032638,4.912e-05,0.0,0 STARLINK-4492,1 53410U 22097Y   24096.50502057  .00004912  00000-0  32638-3 0  9999,2 53410  53.2195  30.8369 0001446  91.1817 268.9341 15.08854980 92003,6917.835,95.437,540.7,538.699,0.0
53410.0,STARLINK-4492,PAYLOAD,2024-04-05 20:04:10,15.08845528,0.0002362,53.2191,29.3505,83.6309,276.4952,0.00019185,2.767e-05,0.0,0 STARLINK-4492,1 53410U 22097Y   24096.83622698  .00002767  00000-0  19185-3 0  9997,2 53410  53.2191  29.3505 0002362  83.6309 276.4952 15.08845528 92059,6917.863,95.437,541.362,538.094,0.0
53410.0,STARLINK-4492,PAYLOAD,2024-04-06 02:25:42,15.08839951,0.0001419,53.2185,28.1629,90.3708,269.7447,6.7871e-05,7.92e-06,0.0,0 STARLINK-4492,1 53410U 22097Y   24097.10118725  .00000792  00000-0  67871-4 0  9991,2 53410  53.2185  28.1629 0001419  90.3708 269.7447 15.08839951 92097,6917.881,95.438,540.727,538.764,0.0
53410.0,STARLINK-4492,PAYLOAD,2024-04-06 23:05:43,15.08840537,0.0001533,53.2195,24.2996,101.0549,259.0615,0.00015079,2.113e-05,0.0,0 STARLINK-4492,1 53410U 22097Y   24097.96230910  .00002113  00000-0  15079-3 0  9997,2 53410  53.2195  24.2996 0001533 101.0549 259.0615 15.08840537 92712,6917.879,95.438,540.804,538.683,0.0
53410.0,STARLINK-4492,PAYLOAD,2024-04-07 02:16:29,15.0883634,0.000145,53.2195,23.7044,99.2895,260.8261,8.2617e-05,1.027e-05,0.0,0 STARLINK-4492,1 53410U 22097Y   24098.09479092  .00001027  00000-0  82617-4 0  9994,2 53410  53.2195  23.7044 0001450  99.2895 260.8261 15.08836340 92242,6917.892,95.438,540.76,538.753,0.0
53410.0,STARLINK-4492,PAYLOAD,2024-04-07 11:48:48,15.08843828,0.0001364,53.219,21.9178,89.6124,270.5024,0.00027098,4.028e-05,0.0,0 STARLINK-4492,1 53410U 22097Y   24098.49222978  .00004028  00000-0  27098-3 0  9992,2 53410  53.2190  21.9178 0001364  89.6124 270.5024 15.08843828 92791,6917.869,95.437,540.677,538.79,0.0
53410.0,STARLINK-4492,PAYLOAD,2024-04-07 22:56:31,15.08832837,0.0001499,53.2202,19.8384,94.9399,265.1764,2.7211e-05,1.45e-06,0.0,0 STARLINK-4492,1 53410U 22097Y   24098.95591507  .00000145  00000-0  27211-4 0  9994,2 53410  53.2202  19.8384 0001499  94.9399 265.1764 15.08832837 92869,6917.902,95.438,540.804,538.73,0.0
53410.0,STARLINK-4492,PAYLOAD,2024-04-08 03:42:40,15.08839551,0.0001405,53.2191,18.945,93.4781,266.6372,0.00014191,1.971e-05,0.0,0 STARLINK-4492,1 53410U 22097Y   24099.15463329  .00001971  00000-0  14191-3 0  9997,2 53410  53.2191  18.9450 0001405  93.4781 266.6372 15.08839551 92407,6917.882,95.438,540.719,538.775,0.0
53410.0,STARLINK-4492,PAYLOAD,2024-04-08 11:39:35,15.08851491,0.0001361,53.219,17.4574,85.7853,274.3295,0.00030144,4.514e-05,0.0,0 STARLINK-4492,1 53410U 22097Y   24099.48582743  .00004514  00000-0  30144-3 0  9997,2 53410  53.2190  17.4574 0001361  85.7853 274.3295 15.08851491 92454,6917.845,95.437,540.652,538.769,0.0
53410.0,STARLINK-4492,PAYLOAD,2024-04-09 00:22:41,15.08840039,0.0001515,53.2193,15.077,85.9832,274.1333,9.3335e-05,1.198e-05,0.0,0 STARLINK-4492,1 53410U 22097Y   24100.01575368  .00001198  00000-0  93335-4 0  9991,2 53410  53.2193  15.0770 0001515  85.9832 274.1333 15.08840039 93020,6917.88,95.438,540.793,538.697,0.0
53410.0,STARLINK-4492,PAYLOAD,2024-04-09 03:33:27,15.08843423,0.0001446,53.2191,14.4821,84.1049,276.0108,0.00016267,2.302e-05,0.0,0 STARLINK-4492,1 53410U 22097Y   24100.14823243  .00002302  00000-0  16267-3 0  9999,2 53410  53.2191  14.4821 0001446  84.1049 276.0108 15.08843423 92550,6917.87,95.437,540.735,538.735,0.0
